{"type": "FeatureCollection", "features": [ {"type": "Feature", "properties": {"norad_id": 51444, "name": "CSG-2", "group": "resource", "lat": 77.54069002011146, "lon": 119.63188909425384, "alt_km": 614.2580417175805, "timestamp": "2025-12-02T23:34:15.171425+00:00", "meta": {"OBJECT_NAME": "CSG-2", "OBJECT_ID": "2022-008A", "EPOCH": "2025-12-02T11:52:05.023776", "MEAN_MOTION": 14.82146496, "ECCENTRICITY": 0.0001483, "INCLINATION": 97.8805, "RA_OF_ASC_NODE": 157.9718, "ARG_OF_PERICENTER": 92.2445, "MEAN_ANOMALY": 267.8938, "EPHEMERIS_TYPE": 0, "CLASSIFICATION_TYPE": "U", "NORAD_CAT_ID": 51444, "ELEMENT_SET_NO": 999, "REV_AT_EPOCH": 20745, "BSTAR": 9.0938e-05, "MEAN_MOTION_DOT": 6.72e-06, "MEAN_MOTION_DDOT": 0}, "tle": {"line1": "1 51444U 22008A   25336.49450259  .00000672  00000+0  90938-4 0  9994", "line2": "2 51444  97.8805 157.9718 0001483  92.2445 267.8938 14.82146496207453"}}, "geometry": {"type": "Point", "coordinates": [119.63188909425384, 77.54069002011146]}}, {"type": "Feature", "properties": {"norad_id": 52912, "name": "GAOFEN-12 03", "group": "resource", "lat": 81.55508527471848, "lon": 156.2630835178035, "alt_km": 621.6329603989343, "timestamp": "2025-12-02T23:34:15.171435+00:00", "meta": {"OBJECT_NAME": "GAOFEN-12 03", "OBJECT_ID": "2022-069A", "EPOCH": "2025-12-02T13:26:28.724352", "MEAN_MOTION": 14.79568772, "ECCENTRICITY": 0.0002329, "INCLINATION": 97.8486, "RA_OF_ASC_NODE": 224.1439, "ARG_OF_PERICENTER": 76.8983, "MEAN_ANOMALY": 283.2489, "EPHEMERIS_TYPE": 0, "CLASSIFICATION_TYPE": "U", "NORAD_CAT_ID": 52912, "ELEMENT_SET_NO": 999, "REV_AT_EPOCH": 18553, "BSTAR": 0.00022398, "MEAN_MOTION_DOT": 1.626e-05, "MEAN_MOTION_DDOT": 0}, "tle": {"line1": "1 52912U 22069A   25336.56005468  .00001626  00000+0  22398-3 0  9992", "line2": "2 52912  97.8486 224.1439 0002329  76.8983 283.2489 14.79568772185539"}}, "geometry": {"type": "Point", "coordinates": [156.2630835178035, 81.55508527471848]}}, {"type": "Feature", "properties": {"norad_id": 54754, "name": "SWOT", "group": "resource", "lat": -34.96226109829945, "lon": -68.67902342005523, "alt_km": 899.4547427324005, "timestamp": "2025-12-02T23:34:15.171445+00:00", "meta": {"OBJECT_NAME": "SWOT", "OBJECT_ID": "2022-173A", "EPOCH": "2025-12-02T11:44:16.080864", "MEAN_MOTION": 14.00172235, "ECCENTRICITY": 2.95e-05, "INCLINATION": 77.6099, "RA_OF_ASC_NODE": 300.828, "ARG_OF_PERICENTER": 140.726, "MEAN_ANOMALY": 219.3913, "EPHEMERIS_TYPE": 0, "CLASSIFICATION_TYPE": "U", "NORAD_CAT_ID": 54754, "ELEMENT_SET_NO": 999, "REV_AT_EPOCH": 15162, "BSTAR": 4.4496e-05, "MEAN_MOTION_DOT": 6.3e-07, "MEAN_MOTION_DDOT": 0}, "tle": {"line1": "1 54754U 22173A   25336.48907501  .00000063  00000+0  44496-4 0  9992", "line2": "2 54754  77.6099 300.8280 0000295 140.7260 219.3913 14.00172235151620"}}, "geometry": {"type": "Point", "coordinates": [-68.67902342005523, -34.96226109829945]}}, {"type": "Feature", "properties": {"norad_id": 57654, "name": "GAOFEN-12 04", "group": "resource", "lat": -71.68249065984523, "lon": 48.05135660938724, "alt_km": 638.7560977270732, "timestamp": "2025-12-02T23:34:15.171455+00:00", "meta": {"OBJECT_NAME": "GAOFEN-12 04", "OBJECT_ID": "2023-123A", "EPOCH": "2025-12-02T12:41:28.251744", "MEAN_MOTION": 14.79650002, "ECCENTRICITY": 0.0001477, "INCLINATION": 97.9112, "RA_OF_ASC_NODE": 252.4416, "ARG_OF_PERICENTER": 71.4285, "MEAN_ANOMALY": 288.7087, "EPHEMERIS_TYPE": 0, "CLASSIFICATION_TYPE": "U", "NORAD_CAT_ID": 57654, "ELEMENT_SET_NO": 999, "REV_AT_EPOCH": 12354, "BSTAR": 0.00026919, "MEAN_MOTION_DOT": 1.968e-05, "MEAN_MOTION_DDOT": 0}, "tle": {"line1": "1 57654U 23123A   25336.52879921  .00001968  00000+0  26919-3 0  9993", "line2": "2 57654  97.9112 252.4416 0001477  71.4285 288.7087 14.79650002123547"}}, "geometry": {"type": "Point", "coordinates": [48.05135660938724, -71.68249065984523]}}, {"type": "Feature", "properties": {"norad_id": 59065, "name": "PARS 1", "group": "resource", "lat": -53.34417704931902, "lon": -42.14427104693141, "alt_km": 459.06280985276044, "timestamp": "2025-12-02T23:34:15.171465+00:00", "meta": {"OBJECT_NAME": "PARS 1", "OBJECT_ID": "2024-039Q", "EPOCH": "2025-12-02T12:53:36.825792", "MEAN_MOTION": 15.40624321, "ECCENTRICITY": 0.0012647, "INCLINATION": 97.4617, "RA_OF_ASC_NODE": 307.2578, "ARG_OF_PERICENTER": 102.1843, "MEAN_ANOMALY": 258.0821, "EPHEMERIS_TYPE": 0, "CLASSIFICATION_TYPE": "U", "NORAD_CAT_ID": 59065, "ELEMENT_SET_NO": 999, "REV_AT_EPOCH": 9831, "BSTAR": 0.00035205, "MEAN_MOTION_DOT": 0.00014299, "MEAN_MOTION_DDOT": 0}, "tle": {"line1": "1 59065U 24039Q   25336.53723178  .00014299  00000+0  35205-3 0  9990", "line2": "2 59065  97.4617 307.2578 0012647 102.1843 258.0821 15.40624321 98317"}}, "geometry": {"type": "Point", "coordinates": [-42.14427104693141, -53.34417704931902]}}, {"type": "Feature", "properties": {"norad_id": 59371, "name": "RESURS-P 4", "group": "resource", "lat": 36.01568712438608, "lon": -81.79814620740999, "alt_km": 466.09962194555646, "timestamp": "2025-12-02T23:34:15.171475+00:00", "meta": {"OBJECT_NAME": "RESURS-P 4", "OBJECT_ID": "2024-061A", "EPOCH": "2025-12-02T12:26:21.550272", "MEAN_MOTION": 15.31957353, "ECCENTRICITY": 0.0002231, "INCLINATION": 97.2525, "RA_OF_ASC_NODE": 283.0597, "ARG_OF_PERICENTER": 55.5721, "MEAN_ANOMALY": 304.5732, "EPHEMERIS_TYPE": 0, "CLASSIFICATION_TYPE": "U", "NORAD_CAT_ID": 59371, "ELEMENT_SET_NO": 999, "REV_AT_EPOCH": 9364, "BSTAR": 0.00020033, "MEAN_MOTION_DOT": 6.105e-05, "MEAN_MOTION_DDOT": 0}, "tle": {"line1": "1 59371U 24061A   25336.51830498  .00006105  00000+0  20033-3 0  9997", "line2": "2 59371  97.2525 283.0597 0002231  55.5721 304.5732 15.31957353 93642"}}, "geometry": {"type": "Point", "coordinates": [-81.79814620740999, 36.01568712438608]}}, {"type": "Feature", "properties": {"norad_id": 59625, "name": "LEGION 1", "group": "resource", "lat": 82.4310659382411, "lon": -32.31177712675007, "alt_km": 509.7019011298835, "timestamp": "2025-12-02T23:34:15.171485+00:00", "meta": {"OBJECT_NAME": "LEGION 1", "OBJECT_ID": "2024-081A", "EPOCH": "2025-12-02T12:05:33.567936", "MEAN_MOTION": 15.16315841, "ECCENTRICITY": 0.0004775, "INCLINATION": 97.523, "RA_OF_ASC_NODE": 51.2305, "ARG_OF_PERICENTER": 357.3301, "MEAN_ANOMALY": 2.7906, "EPHEMERIS_TYPE": 0, "CLASSIFICATION_TYPE": "U", "NORAD_CAT_ID": 59625, "ELEMENT_SET_NO": 999, "REV_AT_EPOCH": 8772, "BSTAR": 0.00034834, "MEAN_MOTION_DOT": 6.686e-05, "MEAN_MOTION_DDOT": 0}, "tle": {"line1": "1 59625U 24081A   25336.50386074  .00006686  00000+0  34834-3 0  9994", "line2": "2 59625  97.5230  51.2305 0004775 357.3301   2.7906 15.16315841 87729"}}, "geometry": {"type": "Point", "coordinates": [-32.31177712675007, 82.4310659382411]}}, {"type": "Feature", "properties": {"norad_id": 59626, "name": "LEGION 2", "group": "resource", "lat": -82.3156272616212, "lon": 153.4163348706821, "alt_km": 522.4743289919679, "timestamp": "2025-12-02T23:34:15.171495+00:00", "meta": {"OBJECT_NAME": "LEGION 2", "OBJECT_ID": "2024-081B", "EPOCH": "2025-12-02T11:18:12.849984", "MEAN_MOTION": 15.16328131, "ECCENTRICITY": 0.0006297, "INCLINATION": 97.5234, "RA_OF_ASC_NODE": 51.2845, "ARG_OF_PERICENTER": 335.4445, "MEAN_ANOMALY": 24.6487, "EPHEMERIS_TYPE": 0, "CLASSIFICATION_TYPE": "U", "NORAD_CAT_ID": 59626, "ELEMENT_SET_NO": 999, "REV_AT_EPOCH": 8772, "BSTAR": 0.00033155, "MEAN_MOTION_DOT": 6.364e-05, "MEAN_MOTION_DDOT": 0}, "tle": {"line1": "1 59626U 24081B   25336.47098206  .00006364  00000+0  33155-3 0  9996", "line2": "2 59626  97.5234  51.2845 0006297 335.4445  24.6487 15.16328131 87723"}}, "geometry": {"type": "Point", "coordinates": [153.4163348706821, -82.3156272616212]}}, {"type": "Feature", "properties": {"norad_id": 60182, "name": "ALOS-4 (DAICHI-4)", "group": "resource", "lat": 38.23879605104121, "lon": -101.73113387298612, "alt_km": 627.5535488470969, "timestamp": "2025-12-02T23:34:15.171505+00:00", "meta": {"OBJECT_NAME": "ALOS-4 (DAICHI-4)", "OBJECT_ID": "2024-123A", "EPOCH": "2025-11-30T09:15:12.370176", "MEAN_MOTION": 14.79468497, "ECCENTRICITY": 0.000127, "INCLINATION": 97.9232, "RA_OF_ASC_NODE": 69.4089, "ARG_OF_PERICENTER": 105.4124, "MEAN_ANOMALY": 254.7228, "EPHEMERIS_TYPE": 0, "CLASSIFICATION_TYPE": "U", "NORAD_CAT_ID": 60182, "ELEMENT_SET_NO": 999, "REV_AT_EPOCH": 7648, "BSTAR": -8.429942e-06, "MEAN_MOTION_DOT": -1.14e-06, "MEAN_MOTION_DDOT": 0}, "tle": {"line1": "1 60182U 24123A   25334.38555984 -.00000114  00000+0 -84299-5 0  9997", "line2": "2 60182  97.9232  69.4089 0001270 105.4124 254.7228 14.79468497 76488"}}, "geometry": {"type": "Point", "coordinates": [-101.73113387298612, 38.23879605104121]}}, {"type": "Feature", "properties": {"norad_id": 60452, "name": "LEGION 3", "group": "resource", "lat": -42.70379029006086, "lon": -110.1286896260196, "alt_km": 526.0661608744713, "timestamp": "2025-12-02T23:34:15.171516+00:00", "meta": {"OBJECT_NAME": "LEGION 3", "OBJECT_ID": "2024-146A", "EPOCH": "2025-12-02T11:23:05.097120", "MEAN_MOTION": 15.1558626, "ECCENTRICITY": 0.0013693, "INCLINATION": 45.0024, "RA_OF_ASC_NODE": 5.1567, "ARG_OF_PERICENTER": 140.2883, "MEAN_ANOMALY": 219.9, "EPHEMERIS_TYPE": 0, "CLASSIFICATION_TYPE": "U", "NORAD_CAT_ID": 60452, "ELEMENT_SET_NO": 999, "REV_AT_EPOCH": 7217, "BSTAR": 0.00035847, "MEAN_MOTION_DOT": 6.676e-05, "MEAN_MOTION_DDOT": 0}, "tle": {"line1": "1 60452U 24146A   25336.47436455  .00006676  00000+0  35847-3 0  9995", "line2": "2 60452  45.0024   5.1567 0013693 140.2883 219.9000 15.15586260 72173"}}, "geometry": {"type": "Point", "coordinates": [-110.1286896260196, -42.70379029006086]}}]}